EUTELSAT 21B            
1 38992U 12062B   25334.08168603  .00000151  00000+0  00000+0 0  9996
2 38992   0.0713  13.0683 0003359 249.5114 217.6367  1.00272619 47833
EUTELSAT 70B            
1 39020U 12069A   25334.10072441 -.00000022  00000+0  00000+0 0  9991
2 39020   0.0627 353.9063 0004393 245.5302 296.5603  1.00271326 47510
EUTELSAT 117 WEST A     
1 39122U 13012A   25334.05429920  .00000008  00000+0  00000+0 0  9998
2 39122   0.0268  37.9564 0002964 210.1446  83.8475  1.00271665 46438
EUTELSAT 7B             
1 39163U 13022A   25334.07882602  .00000070  00000+0  00000+0 0  9995
2 39163   0.0788  26.2139 0004223 287.0820 151.3029  1.00272197 45962
EXPRESS-AT1             
1 39612U 14010A   25333.16104314  .00000099  00000+0  00000+0 0  9999
2 39612   0.0184 291.0739 0000222 192.7658  58.4459  1.00271674 42819
EXPRESS-AT2             
1 39613U 14010B   25334.17646178 -.00000260  00000+0  00000+0 0  9992
2 39613   0.0170 298.3805 0001577 344.3839 349.9372  1.00269111 42500
EUTELSAT 3B             
1 39773U 14030A   25334.07804602  .00000041  00000+0  00000+0 0  9994
2 39773   0.0623 353.2839 0004713 230.8006 236.3369  1.00270338 42078
EUTELSAT 115 WEST B     
1 40425U 15010B   25334.05464588 -.00000003  00000+0  00000+0 0  9991
2 40425   0.0146 143.8004 0000209 268.0925 282.0788  1.00268978 39391
