{
  "type": "FeatureCollection",
  "features": [
    {
      "type": "Feature",
      "properties": {
        "OBJECT_NAME": "EUTELSAT 21B",
        "OBJECT_ID": "2012-062B",
        "EPOCH": "2025-11-30T01:57:37.672992",
        "MEAN_MOTION": 1.00272619,
        "ECCENTRICITY": 0.0003359,
        "INCLINATION": 0.0713,
        "RA_OF_ASC_NODE": 13.0683,
        "ARG_OF_PERICENTER": 249.5114,
        "MEAN_ANOMALY": 217.6367,
        "EPHEMERIS_TYPE": 0,
        "CLASSIFICATION_TYPE": "U",
        "NORAD_CAT_ID": 38992,
        "ELEMENT_SET_NO": 999,
        "REV_AT_EPOCH": 4783,
        "BSTAR": 0,
        "MEAN_MOTION_DOT": 1.51e-06,
        "MEAN_MOTION_DDOT": 0,
        "norad_id": 38992,
        "name": "EUTELSAT 21B",
        "group": "eutelsat",
        "longitude_deg": NaN,
        "latitude_deg": NaN,
        "alt_km": NaN,
        "orbit_class": "HEO",
        "timestamp": "2025-11-30T08:43:09.299639+00:00"
      },
      "geometry": {
        "type": "Point",
        "coordinates": [
          NaN,
          NaN
        ]
      }
    },
    {
      "type": "Feature",
      "properties": {
        "OBJECT_NAME": "EUTELSAT 70B",
        "OBJECT_ID": "2012-069A",
        "EPOCH": "2025-11-30T02:25:02.589024",
        "MEAN_MOTION": 1.00271326,
        "ECCENTRICITY": 0.0004393,
        "INCLINATION": 0.0627,
        "RA_OF_ASC_NODE": 353.9063,
        "ARG_OF_PERICENTER": 245.5302,
        "MEAN_ANOMALY": 296.5603,
        "EPHEMERIS_TYPE": 0,
        "CLASSIFICATION_TYPE": "U",
        "NORAD_CAT_ID": 39020,
        "ELEMENT_SET_NO": 999,
        "REV_AT_EPOCH": 4751,
        "BSTAR": 0,
        "MEAN_MOTION_DOT": -2.2e-07,
        "MEAN_MOTION_DDOT": 0,
        "norad_id": 39020,
        "name": "EUTELSAT 70B",
        "group": "eutelsat",
        "longitude_deg": NaN,
        "latitude_deg": NaN,
        "alt_km": NaN,
        "orbit_class": "HEO",
        "timestamp": "2025-11-30T08:43:09.299688+00:00"
      },
      "geometry": {
        "type": "Point",
        "coordinates": [
          NaN,
          NaN
        ]
      }
    },
    {
      "type": "Feature",
      "properties": {
        "OBJECT_NAME": "EUTELSAT 117 WEST A",
        "OBJECT_ID": "2013-012A",
        "EPOCH": "2025-11-30T01:18:11.450880",
        "MEAN_MOTION": 1.00271665,
        "ECCENTRICITY": 0.0002964,
        "INCLINATION": 0.0268,
        "RA_OF_ASC_NODE": 37.9564,
        "ARG_OF_PERICENTER": 210.1446,
        "MEAN_ANOMALY": 83.8475,
        "EPHEMERIS_TYPE": 0,
        "CLASSIFICATION_TYPE": "U",
        "NORAD_CAT_ID": 39122,
        "ELEMENT_SET_NO": 999,
        "REV_AT_EPOCH": 4643,
        "BSTAR": 0,
        "MEAN_MOTION_DOT": 8e-08,
        "MEAN_MOTION_DDOT": 0,
        "norad_id": 39122,
        "name": "EUTELSAT 117 WEST A",
        "group": "eutelsat",
        "longitude_deg": NaN,
        "latitude_deg": NaN,
        "alt_km": NaN,
        "orbit_class": "HEO",
        "timestamp": "2025-11-30T08:43:09.299863+00:00"
      },
      "geometry": {
        "type": "Point",
        "coordinates": [
          NaN,
          NaN
        ]
      }
    },
    {
      "type": "Feature",
      "properties": {
        "OBJECT_NAME": "EUTELSAT 7B",
        "OBJECT_ID": "2013-022A",
        "EPOCH": "2025-11-30T01:53:30.568128",
        "MEAN_MOTION": 1.00272197,
        "ECCENTRICITY": 0.0004223,
        "INCLINATION": 0.0788,
        "RA_OF_ASC_NODE": 26.2139,
        "ARG_OF_PERICENTER": 287.082,
        "MEAN_ANOMALY": 151.3029,
        "EPHEMERIS_TYPE": 0,
        "CLASSIFICATION_TYPE": "U",
        "NORAD_CAT_ID": 39163,
        "ELEMENT_SET_NO": 999,
        "REV_AT_EPOCH": 4596,
        "BSTAR": 0,
        "MEAN_MOTION_DOT": 7e-07,
        "MEAN_MOTION_DDOT": 0,
        "norad_id": 39163,
        "name": "EUTELSAT 7B",
        "group": "eutelsat",
        "longitude_deg": NaN,
        "latitude_deg": NaN,
        "alt_km": NaN,
        "orbit_class": "HEO",
        "timestamp": "2025-11-30T08:43:09.299920+00:00"
      },
      "geometry": {
        "type": "Point",
        "coordinates": [
          NaN,
          NaN
        ]
      }
    },
    {
      "type": "Feature",
      "properties": {
        "OBJECT_NAME": "EXPRESS-AT1",
        "OBJECT_ID": "2014-010A",
        "EPOCH": "2025-11-29T03:51:54.127296",
        "MEAN_MOTION": 1.00271674,
        "ECCENTRICITY": 2.229e-05,
        "INCLINATION": 0.0184,
        "RA_OF_ASC_NODE": 291.0739,
        "ARG_OF_PERICENTER": 192.7658,
        "MEAN_ANOMALY": 58.4459,
        "EPHEMERIS_TYPE": 0,
        "CLASSIFICATION_TYPE": "U",
        "NORAD_CAT_ID": 39612,
        "ELEMENT_SET_NO": 999,
        "REV_AT_EPOCH": 4281,
        "BSTAR": 0,
        "MEAN_MOTION_DOT": 9.9e-07,
        "MEAN_MOTION_DDOT": 0,
        "norad_id": 39612,
        "name": "EXPRESS-AT1",
        "group": "eutelsat",
        "longitude_deg": NaN,
        "latitude_deg": NaN,
        "alt_km": NaN,
        "orbit_class": "HEO",
        "timestamp": "2025-11-30T08:43:09.300473+00:00"
      },
      "geometry": {
        "type": "Point",
        "coordinates": [
          NaN,
          NaN
        ]
      }
    },
    {
      "type": "Feature",
      "properties": {
        "OBJECT_NAME": "EXPRESS-AT2",
        "OBJECT_ID": "2014-010B",
        "EPOCH": "2025-11-30T04:14:06.297792",
        "MEAN_MOTION": 1.00269111,
        "ECCENTRICITY": 0.0001577,
        "INCLINATION": 0.017,
        "RA_OF_ASC_NODE": 298.3805,
        "ARG_OF_PERICENTER": 344.3839,
        "MEAN_ANOMALY": 349.9372,
        "EPHEMERIS_TYPE": 0,
        "CLASSIFICATION_TYPE": "U",
        "NORAD_CAT_ID": 39613,
        "ELEMENT_SET_NO": 999,
        "REV_AT_EPOCH": 4250,
        "BSTAR": 0,
        "MEAN_MOTION_DOT": -2.6e-06,
        "MEAN_MOTION_DDOT": 0,
        "norad_id": 39613,
        "name": "EXPRESS-AT2",
        "group": "eutelsat",
        "longitude_deg": NaN,
        "latitude_deg": NaN,
        "alt_km": NaN,
        "orbit_class": "HEO",
        "timestamp": "2025-11-30T08:43:09.300481+00:00"
      },
      "geometry": {
        "type": "Point",
        "coordinates": [
          NaN,
          NaN
        ]
      }
    },
    {
      "type": "Feature",
      "properties": {
        "OBJECT_NAME": "EUTELSAT 3B",
        "OBJECT_ID": "2014-030A",
        "EPOCH": "2025-11-30T01:52:23.176128",
        "MEAN_MOTION": 1.00270338,
        "ECCENTRICITY": 0.0004713,
        "INCLINATION": 0.0623,
        "RA_OF_ASC_NODE": 353.2839,
        "ARG_OF_PERICENTER": 230.8006,
        "MEAN_ANOMALY": 236.3369,
        "EPHEMERIS_TYPE": 0,
        "CLASSIFICATION_TYPE": "U",
        "NORAD_CAT_ID": 39773,
        "ELEMENT_SET_NO": 999,
        "REV_AT_EPOCH": 4207,
        "BSTAR": 0,
        "MEAN_MOTION_DOT": 4.1e-07,
        "MEAN_MOTION_DDOT": 0,
        "norad_id": 39773,
        "name": "EUTELSAT 3B",
        "group": "eutelsat",
        "longitude_deg": NaN,
        "latitude_deg": NaN,
        "alt_km": NaN,
        "orbit_class": "HEO",
        "timestamp": "2025-11-30T08:43:09.300624+00:00"
      },
      "geometry": {
        "type": "Point",
        "coordinates": [
          NaN,
          NaN
        ]
      }
    },
    {
      "type": "Feature",
      "properties": {
        "OBJECT_NAME": "EUTELSAT 115 WEST B",
        "OBJECT_ID": "2015-010B",
        "EPOCH": "2025-11-30T01:18:41.404032",
        "MEAN_MOTION": 1.00268978,
        "ECCENTRICITY": 2.09e-05,
        "INCLINATION": 0.0146,
        "RA_OF_ASC_NODE": 143.8004,
        "ARG_OF_PERICENTER": 268.0925,
        "MEAN_ANOMALY": 282.0788,
        "EPHEMERIS_TYPE": 0,
        "CLASSIFICATION_TYPE": "U",
        "NORAD_CAT_ID": 40425,
        "ELEMENT_SET_NO": 999,
        "REV_AT_EPOCH": 3939,
        "BSTAR": 0,
        "MEAN_MOTION_DOT": -3e-08,
        "MEAN_MOTION_DDOT": 0,
        "norad_id": 40425,
        "name": "EUTELSAT 115 WEST B",
        "group": "eutelsat",
        "longitude_deg": NaN,
        "latitude_deg": NaN,
        "alt_km": NaN,
        "orbit_class": "HEO",
        "timestamp": "2025-11-30T08:43:09.301280+00:00"
      },
      "geometry": {
        "type": "Point",
        "coordinates": [
          NaN,
          NaN
        ]
      }
    }
  ]
}